start=new Date('2023-06-12T00:00:00.000Z').valueOf();
sats=[{"REF_FRAME":"TEME","OBJECT_TYPE":"PAYLOAD","FILE":"3930737","MEAN_ELEMENT_THEORY":"SGP4","EPHEMERIS_TYPE":"0","EPOCH":"2023-06-11T17:51:38.346048","OBJECT_NAME":"STARLINK-5531","TLE_LINE2":"2 55383  43.0029 331.3631 0001367 266.8652  93.2034 15.02535813 21148","GP_ID":"233729643","RCS_SIZE":"LARGE","MEAN_MOTION":"15.02535813","PERIOD":"95.838","ARG_OF_PERICENTER":"266.8652","BSTAR":"-0.00000867120000","TIME_SYSTEM":"UTC","SITE":"AFETR","REV_AT_EPOCH":"2114","TLE_LINE1":"1 55383U 23013BE  23162.74419382 -.00000321  00000-0 -86712-5 0  9992","ELEMENT_SET_NO":"999","COUNTRY_CODE":"US","APOAPSIS":"560.030","DECAY_DATE":null,"CLASSIFICATION_TYPE":"U","SEMIMAJOR_AXIS":"6937.217","INCLINATION":"43.0029","NORAD_CAT_ID":"55383","LAUNCH_DATE":"2023-01-26","MEAN_MOTION_DDOT":"0.0000000000000","OBJECT_ID":"2023-013BE","CENTER_NAME":"EARTH","ECCENTRICITY":"0.00013670","MEAN_MOTION_DOT":"-0.00000321","PERIAPSIS":"558.134","RA_OF_ASC_NODE":"331.3631","MEAN_ANOMALY":"93.2034"},{"BSTAR":"0.00009368900000","ARG_OF_PERICENTER":"269.5004","PERIOD":"95.838","MEAN_MOTION":"15.02540014","RCS_SIZE":"LARGE","OBJECT_NAME":"STARLINK-5537","TLE_LINE2":"2 55384  43.0047 356.5927 0001526 269.5004  90.5663 15.02540014 20869","GP_ID":"233728896","EPHEMERIS_TYPE":"0","EPOCH":"2023-06-11T20:52:45.563520","REF_FRAME":"TEME","MEAN_ELEMENT_THEORY":"SGP4","FILE":"3930737","OBJECT_TYPE":"PAYLOAD","PERIAPSIS":"558.011","MEAN_ANOMALY":"90.5663","RA_OF_ASC_NODE":"356.5927","ECCENTRICITY":"0.00015260","MEAN_MOTION_DOT":"0.00001062","MEAN_MOTION_DDOT":"0.0000000000000","CENTER_NAME":"EARTH","OBJECT_ID":"2023-013BF","NORAD_CAT_ID":"55384","LAUNCH_DATE":"2023-01-26","DECAY_DATE":null,"INCLINATION":"43.0047","CLASSIFICATION_TYPE":"U","SEMIMAJOR_AXIS":"6937.204","COUNTRY_CODE":"US","TLE_LINE1":"1 55384U 23013BF  23162.86997180  .00001062  00000-0  93689-4 0  9994","ELEMENT_SET_NO":"999","APOAPSIS":"560.128","REV_AT_EPOCH":"2086","SITE":"AFETR","TIME_SYSTEM":"UTC"},{"NORAD_CAT_ID":"55385","LAUNCH_DATE":"2023-01-26","MEAN_MOTION_DDOT":"0.0000000000000","OBJECT_ID":"2023-013BG","CENTER_NAME":"EARTH","ECCENTRICITY":"0.00016340","MEAN_MOTION_DOT":"0.00000797","PERIAPSIS":"557.945","RA_OF_ASC_NODE":"357.9236","MEAN_ANOMALY":"81.6157","TIME_SYSTEM":"UTC","SITE":"AFETR","REV_AT_EPOCH":"2082","TLE_LINE1":"1 55385U 23013BG  23162.58963557  .00000797  00000-0  74102-4 0  9998","ELEMENT_SET_NO":"999","COUNTRY_CODE":"US","APOAPSIS":"560.212","DECAY_DATE":null,"SEMIMAJOR_AXIS":"6937.213","CLASSIFICATION_TYPE":"U","INCLINATION":"43.0044","MEAN_MOTION":"15.02537122","PERIOD":"95.838","ARG_OF_PERICENTER":"278.4500","BSTAR":"0.00007410200000","REF_FRAME":"TEME","OBJECT_TYPE":"PAYLOAD","MEAN_ELEMENT_THEORY":"SGP4","FILE":"3930529","EPHEMERIS_TYPE":"0","EPOCH":"2023-06-11T14:09:04.513248","OBJECT_NAME":"STARLINK-5556","TLE_LINE2":"2 55385  43.0044 357.9236 0001634 278.4500  81.6157 15.02537122 20826","GP_ID":"233697248","RCS_SIZE":"LARGE"},{"NORAD_CAT_ID":"55386","LAUNCH_DATE":"2023-01-26","MEAN_MOTION_DDOT":"0.0000000000000","CENTER_NAME":"EARTH","OBJECT_ID":"2023-013BH","ECCENTRICITY":"0.00018070","MEAN_MOTION_DOT":"0.00003234","PERIAPSIS":"557.800","MEAN_ANOMALY":"87.1287","RA_OF_ASC_NODE":"356.1430","TIME_SYSTEM":"UTC","REV_AT_EPOCH":"2087","SITE":"AFETR","COUNTRY_CODE":"US","ELEMENT_SET_NO":"999","TLE_LINE1":"1 55386U 23013BH  23162.92534960  .00003234  00000-0  25430-3 0  9997","APOAPSIS":"560.307","DECAY_DATE":null,"INCLINATION":"43.0030","SEMIMAJOR_AXIS":"6937.188","CLASSIFICATION_TYPE":"U","MEAN_MOTION":"15.02545201","PERIOD":"95.837","BSTAR":"0.00025430000000","ARG_OF_PERICENTER":"272.9349","REF_FRAME":"TEME","MEAN_ELEMENT_THEORY":"SGP4","FILE":"3930737","OBJECT_TYPE":"PAYLOAD","EPHEMERIS_TYPE":"0","EPOCH":"2023-06-11T22:12:30.205440","OBJECT_NAME":"STARLINK-5555","TLE_LINE2":"2 55386  43.0030 356.1430 0001807 272.9349  87.1287 15.02545201 20878","GP_ID":"233729394","RCS_SIZE":"LARGE"},{"REV_AT_EPOCH":"2171","SITE":"AFWTR","TIME_SYSTEM":"UTC","INCLINATION":"69.9971","SEMIMAJOR_AXIS":"6737.236","CLASSIFICATION_TYPE":"U","DECAY_DATE":null,"APOAPSIS":"361.383","COUNTRY_CODE":"US","TLE_LINE1":"1 55391U 23014A   23162.74551943 -.00001807  00000-0 -13258-4 0  9996","ELEMENT_SET_NO":"999","CENTER_NAME":"EARTH","OBJECT_ID":"2023-014A","MEAN_MOTION_DDOT":"0.0000000000000","LAUNCH_DATE":"2023-01-31","NORAD_CAT_ID":"55391","MEAN_ANOMALY":"96.5441","RA_OF_ASC_NODE":"81.2033","PERIAPSIS":"356.819","MEAN_MOTION_DOT":"-0.00001807","ECCENTRICITY":"0.00033870","EPOCH":"2023-06-11T17:53:32.878752","EPHEMERIS_TYPE":"0","MEAN_ELEMENT_THEORY":"SGP4","FILE":"3930737","OBJECT_TYPE":"PAYLOAD","REF_FRAME":"TEME","RCS_SIZE":"LARGE","GP_ID":"233730144","OBJECT_NAME":"STARLINK-5077","TLE_LINE2":"2 55391  69.9971  81.2033 0003387 263.5369  96.5441 15.69929411 21715","PERIOD":"91.724","MEAN_MOTION":"15.69929411","BSTAR":"-0.00001325800000","ARG_OF_PERICENTER":"263.5369"},{"RCS_SIZE":"LARGE","GP_ID":"233728396","OBJECT_NAME":"STARLINK-5085","TLE_LINE2":"2 55392  69.9996  81.2077 0003251 266.1441  93.9383 15.69921326 21714","EPOCH":"2023-06-11T17:50:10.400352","EPHEMERIS_TYPE":"0","OBJECT_TYPE":"PAYLOAD","FILE":"3930737","MEAN_ELEMENT_THEORY":"SGP4","REF_FRAME":"TEME","ARG_OF_PERICENTER":"266.1441","BSTAR":"0.00000986150000","PERIOD":"91.724","MEAN_MOTION":"15.69921326","CLASSIFICATION_TYPE":"U","SEMIMAJOR_AXIS":"6737.259","INCLINATION":"69.9996","DECAY_DATE":null,"APOAPSIS":"361.314","TLE_LINE1":"1 55392U 23014B   23162.74317593  .00000973  00000-0  98615-5 0  9990","ELEMENT_SET_NO":"999","COUNTRY_CODE":"US","SITE":"AFWTR","REV_AT_EPOCH":"2171","TIME_SYSTEM":"UTC","RA_OF_ASC_NODE":"81.2077","MEAN_ANOMALY":"93.9383","PERIAPSIS":"356.934","MEAN_MOTION_DOT":"0.00000973","ECCENTRICITY":"0.00032510","OBJECT_ID":"2023-014B","CENTER_NAME":"EARTH","MEAN_MOTION_DDOT":"0.0000000000000","LAUNCH_DATE":"2023-01-31","NORAD_CAT_ID":"55392"},{"REF_FRAME":"TEME","FILE":"3930574","MEAN_ELEMENT_THEORY":"SGP4","OBJECT_TYPE":"PAYLOAD","EPHEMERIS_TYPE":"0","EPOCH":"2023-06-11T11:46:50.716128","TLE_LINE2":"2 55393  69.9977  81.9203 0003542 262.0437  98.0357 15.69917587 20737","OBJECT_NAME":"STARLINK-4786","GP_ID":"233700199","RCS_SIZE":"LARGE","MEAN_MOTION":"15.69917587","PERIOD":"91.725","BSTAR":"0.00000475390000","ARG_OF_PERICENTER":"262.0437","TIME_SYSTEM":"UTC","REV_AT_EPOCH":"2073","SITE":"AFWTR","COUNTRY_CODE":"US","ELEMENT_SET_NO":"999","TLE_LINE1":"1 55393U 23014C   23162.49086477  .00000359  00000-0  47539-5 0  9994","APOAPSIS":"361.521","DECAY_DATE":null,"INCLINATION":"69.9977","CLASSIFICATION_TYPE":"U","SEMIMAJOR_AXIS":"6737.270","NORAD_CAT_ID":"55393","LAUNCH_DATE":"2023-01-31","MEAN_MOTION_DDOT":"0.0000000000000","CENTER_NAME":"EARTH","OBJECT_ID":"2023-014C","ECCENTRICITY":"0.00035420","MEAN_MOTION_DOT":"0.00000359","PERIAPSIS":"356.748","MEAN_ANOMALY":"98.0357","RA_OF_ASC_NODE":"81.9203"},{"TIME_SYSTEM":"UTC","REV_AT_EPOCH":"2171","SITE":"AFWTR","APOAPSIS":"361.388","COUNTRY_CODE":"US","ELEMENT_SET_NO":"999","TLE_LINE1":"1 55394U 23014D   23162.74604480 -.00000372  00000-0 -13265-5 0  9999","INCLINATION":"69.9981","SEMIMAJOR_AXIS":"6737.245","CLASSIFICATION_TYPE":"U","DECAY_DATE":null,"LAUNCH_DATE":"2023-01-31","NORAD_CAT_ID":"55394","CENTER_NAME":"EARTH","OBJECT_ID":"2023-014D","MEAN_MOTION_DDOT":"0.0000000000000","MEAN_MOTION_DOT":"-0.00000372","ECCENTRICITY":"0.00033810","MEAN_ANOMALY":"99.6992","RA_OF_ASC_NODE":"81.2046","PERIAPSIS":"356.832","MEAN_ELEMENT_THEORY":"SGP4","FILE":"3930737","OBJECT_TYPE":"PAYLOAD","REF_FRAME":"TEME","EPOCH":"2023-06-11T17:54:18.270720","EPHEMERIS_TYPE":"0","GP_ID":"233729895","OBJECT_NAME":"STARLINK-5230","TLE_LINE2":"2 55394  69.9981  81.2046 0003381 260.3822  99.6992 15.69926290 21713","RCS_SIZE":"LARGE","MEAN_MOTION":"15.69926290","PERIOD":"91.724","BSTAR":"-0.00000132650000","ARG_OF_PERICENTER":"260.3822"},{"ARG_OF_PERICENTER":"261.2997","BSTAR":"0.00001323300000","PERIOD":"91.724","MEAN_MOTION":"15.69922040","RCS_SIZE":"LARGE","GP_ID":"233729644","TLE_LINE2":"2 55395  69.9980  81.2058 0003405 261.2997  98.7813 15.69922040 21717","OBJECT_NAME":"STARLINK-5274","EPOCH":"2023-06-11T17:54:09.148608","EPHEMERIS_TYPE":"0","OBJECT_TYPE":"PAYLOAD","FILE":"3930737","MEAN_ELEMENT_THEORY":"SGP4","REF_FRAME":"TEME","RA_OF_ASC_NODE":"81.2058","MEAN_ANOMALY":"98.7813","PERIAPSIS":"356.828","MEAN_MOTION_DOT":"0.00001378","ECCENTRICITY":"0.00034050","OBJECT_ID":"2023-014E","CENTER_NAME":"EARTH","MEAN_MOTION_DDOT":"0.0000000000000","LAUNCH_DATE":"2023-01-31","NORAD_CAT_ID":"55395","CLASSIFICATION_TYPE":"U","SEMIMAJOR_AXIS":"6737.257","INCLINATION":"69.9980","DECAY_DATE":null,"APOAPSIS":"361.416","TLE_LINE1":"1 55395U 23014E   23162.74593922  .00001378  00000-0  13233-4 0  9997","ELEMENT_SET_NO":"999","COUNTRY_CODE":"US","SITE":"AFWTR","REV_AT_EPOCH":"2171","TIME_SYSTEM":"UTC"},{"NORAD_CAT_ID":"55396","LAUNCH_DATE":"2023-01-31","MEAN_MOTION_DDOT":"0.0000000000000","OBJECT_ID":"2023-014F","CENTER_NAME":"EARTH","ECCENTRICITY":"0.00031220","MEAN_MOTION_DOT":"0.00001158","PERIAPSIS":"357.004","RA_OF_ASC_NODE":"81.9230","MEAN_ANOMALY":"92.0188","TIME_SYSTEM":"UTC","SITE":"AFWTR","REV_AT_EPOCH":"2167","TLE_LINE1":"1 55396U 23014F   23162.49149124  .00001158  00000-0  11394-4 0  9993","ELEMENT_SET_NO":"999","COUNTRY_CODE":"US","APOAPSIS":"361.211","DECAY_DATE":null,"SEMIMAJOR_AXIS":"6737.243","CLASSIFICATION_TYPE":"U","INCLINATION":"69.9980","MEAN_MOTION":"15.69927073","PERIOD":"91.724","ARG_OF_PERICENTER":"268.0650","BSTAR":"0.00001139400000","REF_FRAME":"TEME","OBJECT_TYPE":"PAYLOAD","FILE":"3930529","MEAN_ELEMENT_THEORY":"SGP4","EPHEMERIS_TYPE":"0","EPOCH":"2023-06-11T11:47:44.843136","OBJECT_NAME":"STARLINK-5283","TLE_LINE2":"2 55396  69.9980  81.9230 0003122 268.0650  92.0188 15.69927073 21672","GP_ID":"233696499","RCS_SIZE":"LARGE"}];
